     2              NAVIGATION DATA                         RINEX VERSION / TYPE
CCRINEXN V1.6.0 UX  CDDIS               22-MAY-18 16:52     PGM / RUN BY / DATE 
IGS BROADCAST EPHEMERIS FILE                                COMMENT             
    0.7451D-08 -0.1490D-07 -0.5960D-07  0.1192D-06          ION ALPHA           
    0.9216D+05 -0.1147D+06 -0.1311D+06  0.7209D+06          ION BETA            
   -0.931322574615D-09-0.266453525910D-14   319488     1982 DELTA-UTC: A0,A1,T,W
    18                                                      LEAP SECONDS        
                                                            END OF HEADER       
 1 18  1  1  0  0  0.0-0.207438133657D-04-0.272848410532D-11 0.000000000000D+00
    0.570000000000D+02-0.933437500000D+02 0.384158858901D-08-0.240481491488D+01
   -0.479072332382D-05 0.722405873239D-02 0.124592334032D-04 0.515368130112D+04
    0.864000000000D+05 0.186264514923D-07-0.115918152708D+00-0.633299350738D-07
    0.970129298099D+00 0.144343750000D+03 0.623034676009D+00-0.747388274579D-08
    0.379301513716D-09 0.100000000000D+01 0.198200000000D+04 0.000000000000D+00
    0.200000000000D+01 0.000000000000D+00 0.558793544769D-08 0.570000000000D+02
    0.803700000000D+05 0.400000000000D+01 0.000000000000D+00 0.000000000000D+00
 2 18  1  1  0  0  0.0 0.240433961153D-03-0.101181285572D-10 0.000000000000D+00
    0.480000000000D+02-0.755312500000D+02 0.434303792929D-08-0.199174748579D+01
   -0.398606061935D-05 0.175429031951D-01 0.121574848890D-04 0.515365470886D+04
    0.864000000000D+05 0.344589352608D-06-0.173907973748D+00-0.109896063805D-06
    0.949138536116D+00 0.135906250000D+03-0.191968603568D+01-0.755174323075D-08
    0.308227138257D-09 0.100000000000D+01 0.198200000000D+04 0.000000000000D+00
    0.200000000000D+01 0.000000000000D+00-0.204890966415D-07 0.480000000000D+02
    0.000000000000D+00 0.000000000000D+00 0.000000000000D+00 0.000000000000D+00
 3 18  1  1  0  0  0.0-0.177365727723D-04 0.648014975013D-11 0.000000000000D+00
    0.960000000000D+02 0.288750000000D+02 0.480127142080D-08 0.284897397598D+01
    0.154413282871D-05 0.116949155927D-02 0.675208866596D-05 0.515357736397D+04
    0.864000000000D+05 0.186264514923D-08 0.926387662782D+00-0.298023223877D-07
    0.960255600237D+00 0.248562500000D+03 0.572787073875D+00-0.807605068564D-08
    0.625383192577D-09 0.100000000000D+01 0.198200000000D+04 0.000000000000D+00
    0.200000000000D+01 0.000000000000D+00 0.232830643654D-08 0.960000000000D+02
    0.792180000000D+05 0.400000000000D+01 0.000000000000D+00 0.000000000000D+00
 5 18  1  1  0  0  0.0-0.181919895112D-04 0.102318153950D-11 0.000000000000D+00
    0.300000000000D+01 0.307500000000D+02 0.516914377968D-08 0.551025229715D+00
    0.170804560184D-05 0.528777041472D-02 0.631995499134D-05 0.515360758972D+04
    0.864000000000D+05-0.260770320892D-07 0.906566385306D+00 0.968575477600D-07
    0.947187794836D+00 0.249812500000D+03 0.631284277330D+00-0.835820568312D-08
    0.547522804872D-09 0.100000000000D+01 0.198200000000D+04 0.000000000000D+00
    0.200000000000D+01 0.000000000000D+00-0.107102096081D-07 0.300000000000D+01
    0.864000000000D+05 0.000000000000D+00 0.000000000000D+00 0.000000000000D+00
 6 18  1  1  0  0  0.0 0.414288602769D-03 0.568434188608D-12 0.000000000000D+00
    0.700000000000D+01-0.804687500000D+02 0.395480759075D-08-0.214264143357D+01
   -0.418163836002D-05 0.913448748179D-03 0.124014914036D-04 0.515355218887D+04
    0.864000000000D+05 0.540167093277D-07-0.124247976067D+00 0.335276126862D-07
    0.969869769117D+00 0.147687500000D+03-0.127572349439D+01-0.767103381506D-08
    0.261796619166D-09 0.100000000000D+01 0.198200000000D+04 0.000000000000D+00
    0.200000000000D+01 0.000000000000D+00 0.465661287308D-08 0.700000000000D+01
    0.854700000000D+05 0.400000000000D+01 0.000000000000D+00 0.000000000000D+00
 7 18  1  1  0  0  0.0 0.258016865701D-03-0.534328137292D-11 0.000000000000D+00
    0.580000000000D+02 0.100968750000D+03 0.419553190360D-08-0.307327946878D+01
    0.517815351486D-05 0.111042354256D-01 0.128205865622D-04 0.515370978737D+04
    0.864000000000D+05-0.447034835815D-07 0.303943960033D+01-0.135973095894D-06
    0.960460465822D+00 0.133312500000D+03-0.254678863190D+01-0.757602985777D-08
   -0.134648465792D-09 0.100000000000D+01 0.198200000000D+04 0.000000000000D+00
    0.200000000000D+01 0.000000000000D+00-0.111758708954D-07 0.580000000000D+02
    0.854700000000D+05 0.400000000000D+01 0.000000000000D+00 0.000000000000D+00
 8 18  1  1  0  0  0.0-0.861012376845D-04-0.136424205266D-11 0.000000000000D+00
    0.570000000000D+02-0.139031250000D+03 0.447411485638D-08 0.260935061176D+00
   -0.735558569431D-05 0.312834302895D-02 0.248663127422D-05 0.515374270058D+04
    0.864000000000D+05 0.111758708954D-06-0.117990132591D+01-0.558793544769D-08
    0.968221699737D+00 0.337625000000D+03-0.609885228076D+00-0.841177882904D-08
   -0.471091055054D-09 0.100000000000D+01 0.198200000000D+04 0.000000000000D+00
    0.280000000000D+01 0.000000000000D+00 0.558793544769D-08 0.570000000000D+02
    0.864000000000D+05 0.000000000000D+00 0.000000000000D+00 0.000000000000D+00
 9 18  1  1  0  0  0.0 0.488862860948D-03 0.363797880709D-11 0.000000000000D+00
    0.570000000000D+02-0.362500000000D+02 0.504092412257D-08 0.388514044655D-01
   -0.206381082535D-05 0.114560464863D-02 0.719353556633D-05 0.515369987297D+04
    0.864000000000D+05-0.242143869400D-07 0.196151945675D+01-0.242143869400D-07
    0.952570511208D+00 0.235906250000D+03 0.173764528193D+01-0.821641332749D-08
   -0.560380464254D-09 0.100000000000D+01 0.198200000000D+04 0.000000000000D+00
    0.200000000000D+01 0.000000000000D+00 0.931322574616D-09 0.570000000000D+02
    0.864000000000D+05 0.000000000000D+00 0.000000000000D+00 0.000000000000D+00
10 18  1  1  0  0  0.0 0.138936098665D-03 0.613908923697D-11 0.000000000000D+00
    0.660000000000D+02 0.252812500000D+02 0.490984719548D-08 0.188490505302D+01
    0.136345624924D-05 0.310853135306D-02 0.663474202156D-05 0.515365801048D+04
    0.864000000000D+05-0.279396772385D-07 0.922835570411D+00 0.577419996262D-07
    0.960381172736D+00 0.250250000000D+03-0.287484272273D+01-0.813926792631D-08
    0.587881632263D-09 0.100000000000D+01 0.198200000000D+04 0.000000000000D+00
    0.200000000000D+01 0.000000000000D+00 0.186264514923D-08 0.660000000000D+02
    0.000000000000D+00 0.000000000000D+00 0.000000000000D+00 0.000000000000D+00
11 18  1  1  0  0  0.0-0.732601620257D-03-0.125055521494D-11 0.000000000000D+00
    0.170000000000D+02-0.158562500000D+03 0.528343457873D-08-0.307958153993D+01
   -0.802427530289D-05 0.167943229899D-01 0.946596264839D-05 0.515375755882D+04
    0.864000000000D+05 0.201165676117D-06-0.532908462462D+00 0.838190317154D-07
    0.903872335351D+00 0.163437500000D+03 0.172936081343D+01-0.811319544880D-08
   -0.953611148380D-10 0.100000000000D+01 0.198200000000D+04 0.000000000000D+00
    0.200000000000D+01 0.000000000000D+00-0.121071934700D-07 0.170000000000D+02
    0.864000000000D+05 0.000000000000D+00 0.000000000000D+00 0.000000000000D+00
12 18  1  1  0  0  0.0 0.357705634087D-03-0.181898940355D-11 0.000000000000D+00
    0.880000000000D+02 0.988750000000D+02 0.414838708269D-08 0.262496949466D+01
    0.495277345181D-05 0.672294280957D-02 0.104308128357D-05 0.515366806030D+04
    0.864000000000D+05 0.316649675369D-07-0.215478628249D+01-0.145286321640D-06
    0.987748763907D+00 0.371218750000D+03 0.910579971277D+00-0.812640992616D-08
    0.235009789101D-09 0.100000000000D+01 0.198200000000D+04 0.000000000000D+00
    0.200000000000D+01 0.000000000000D+00-0.125728547573D-07 0.880000000000D+02
    0.792180000000D+05 0.400000000000D+01 0.000000000000D+00 0.000000000000D+00
13 18  1  1  0  0  0.0-0.951038673520D-04-0.227373675443D-12 0.000000000000D+00
    0.860000000000D+02-0.256875000000D+02 0.451233095333D-08-0.169581921349D+01
   -0.128522515297D-05 0.369901128579D-02 0.856257975101D-05 0.515365529823D+04
    0.864000000000D+05 0.558793544769D-08 0.209104048446D+01 0.128522515297D-06
    0.968536284178D+00 0.218937500000D+03 0.164742530119D+01-0.788247156436D-08
   -0.641455277783D-09 0.100000000000D+01 0.198200000000D+04 0.000000000000D+00
    0.200000000000D+01 0.000000000000D+00-0.116415321827D-07 0.860000000000D+02
    0.864000000000D+05 0.000000000000D+00 0.000000000000D+00 0.000000000000D+00
14 18  1  1  0  0  0.0-0.916081480682D-04-0.682121026330D-12 0.000000000000D+00
    0.540000000000D+02-0.232187500000D+02 0.485377382731D-08-0.537791478202D+00
   -0.116042792797D-05 0.925532670226D-02 0.842474400997D-05 0.515371880531D+04
    0.864000000000D+05-0.596046447754D-07 0.205012038802D+01 0.838190317154D-07
    0.961038262873D+00 0.220250000000D+03-0.195559899363D+01-0.819462719903D-08
   -0.658956000876D-09 0.100000000000D+01 0.198200000000D+04 0.000000000000D+00
    0.200000000000D+01 0.000000000000D+00-0.977888703346D-08 0.540000000000D+02
    0.864000000000D+05 0.000000000000D+00 0.000000000000D+00 0.000000000000D+00
15 18  1  1  0  0  0.0-0.357406213880D-03 0.000000000000D+00 0.000000000000D+00
    0.660000000000D+02-0.308125000000D+02 0.563737767578D-08-0.106511798509D+01
   -0.151991844177D-05 0.100930042099D-01 0.651180744171D-05 0.515365876007D+04
    0.864000000000D+05 0.223517417908D-06 0.189444900622D+01 0.782310962677D-07
    0.928098810264D+00 0.231156250000D+03 0.655717168521D+00-0.851464054818D-08
   -0.490734730629D-09 0.100000000000D+01 0.198200000000D+04 0.000000000000D+00
    0.200000000000D+01 0.000000000000D+00-0.107102096081D-07 0.660000000000D+02
    0.864000000000D+05 0.000000000000D+00 0.000000000000D+00 0.000000000000D+00
